[{"OBJECT_NAME":"OBJECT H","OBJECT_ID":"2025-055H","EPOCH":"2026-03-09T23:29:50.051328","MEAN_MOTION":15.30330066,"ECCENTRICITY":0.00075967,"INCLINATION":97.636,"RA_OF_ASC_NODE":211.9572,"ARG_OF_PERICENTER":140.4354,"MEAN_ANOMALY":219.7441,"EPHEMERIS_TYPE":0,"CLASSIFICATION_TYPE":"U","NORAD_CAT_ID":63298,"ELEMENT_SET_NO":999,"REV_AT_EPOCH":5423,"BSTAR":0.0015582864,"MEAN_MOTION_DOT":0.00045901,"MEAN_MOTION_DDOT":0},{"OBJECT_NAME":"STARLINK-35314","OBJECT_ID":"2025-221Q","EPOCH":"2026-03-09T10:37:26.158368","MEAN_MOTION":15.30193346,"ECCENTRICITY":0.00015346,"INCLINATION":53.1605,"RA_OF_ASC_NODE":89.6246,"ARG_OF_PERICENTER":78.9308,"MEAN_ANOMALY":281.1865,"EPHEMERIS_TYPE":0,"CLASSIFICATION_TYPE":"U","NORAD_CAT_ID":65837,"ELEMENT_SET_NO":999,"REV_AT_EPOCH":2469,"BSTAR":0.00058475315,"MEAN_MOTION_DOT":0.00016996,"MEAN_MOTION_DDOT":0}]
